NORAD_CAT_ID,OBJECT_NAME,OBJECT_TYPE,EPOCH,MEAN_MOTION,ECCENTRICITY,INCLINATION,RA_OF_ASC_NODE,ARG_OF_PERICENTER,MEAN_ANOMALY,BSTAR,MEAN_MOTION_DOT,MEAN_MOTION_DDOT,TLE_LINE0,TLE_LINE1,TLE_LINE2,SEMIMAJOR_AXIS,PERIOD,APOGEE,PERIGEE,DECAYED
54169.0,STARLINK-5282,PAYLOAD,2023-05-25 13:59:37,15.088442,8.73e-05,53.217,258.619,72.6838,287.4249,6.7791e-05,7.91e-06,0.0,0 STARLINK-5282,1 54169U 22141N   23145.58306816  .00000791  00000-0  67791-4 0  9998,2 54169  53.2170 258.6190 0000873  72.6838 287.4249 15.08844200 32012,6917.868,95.437,540.336,539.129,0.0
54169.0,STARLINK-5282,PAYLOAD,2023-05-26 13:50:24,15.08841099,7.37e-05,53.2165,254.1567,82.1139,277.9936,1.771e-05,-6e-08,0.0,0 STARLINK-5282,1 54169U 22141N   23146.57666926 -.00000006  00000-0  17710-4 0  9995,2 54169  53.2165 254.1567 0000737  82.1139 277.9936 15.08841099 32160,6917.877,95.437,540.252,539.232,0.0
54169.0,STARLINK-5282,PAYLOAD,2023-05-27 13:41:11,15.0883827,6.94e-05,53.2165,249.6956,91.0851,269.022,-2.5159e-09,-2.88e-06,0.0,0 STARLINK-5282,1 54169U 22141N   23147.57027159 -.00000288  00000-0 -25159-8 0  9998,2 54169  53.2165 249.6956 0000694  91.0851 269.0220 15.08838270 32315,6917.886,95.438,540.231,539.271,0.0
54169.0,STARLINK-5282,PAYLOAD,2023-05-27 23:13:30,15.0883792,6.9e-05,53.2162,247.9122,93.4482,266.6589,1.624e-05,-2.9e-07,0.0,0 STARLINK-5282,1 54169U 22141N   23147.96771162 -.00000029  00000-0  16240-4 0  9990,2 54169  53.2162 247.9122 0000690  93.4482 266.6589 15.08837920 32378,6917.887,95.438,540.229,539.274,0.0
54169.0,STARLINK-5282,PAYLOAD,2023-05-28 16:42:44,15.08843191,7.21e-05,53.2163,244.6407,89.3959,270.7116,8.7462e-05,1.105e-05,0.0,0 STARLINK-5282,1 54169U 22141N   23148.69634746  .00001105  00000-0  87462-4 0  9996,2 54169  53.2163 244.6407 0000721  89.3959 270.7116 15.08843191 32488,6917.871,95.437,540.234,539.237,0.0
54169.0,STARLINK-5282,PAYLOAD,2023-05-29 10:11:59,15.0884127,7.05e-05,53.2168,241.3689,86.5835,273.5237,2.81e-05,1.6e-06,0.0,0 STARLINK-5282,1 54169U 22141N   23149.42499147  .00000160  00000-0  28100-4 0  9996,2 54169  53.2168 241.3689 0000705  86.5835 273.5237 15.08841270 32596,6917.877,95.437,540.229,539.254,0.0
54169.0,STARLINK-5282,PAYLOAD,2023-05-29 11:47:22,15.08841097,7.29e-05,53.2164,241.0717,98.4185,261.689,6.0072e-05,6.69e-06,0.0,0 STARLINK-5282,1 54169U 22141N   23149.49123005  .00000669  00000-0  60072-4 0  9998,2 54169  53.2164 241.0717 0000729  98.4185 261.6890 15.08841097 32609,6917.877,95.437,540.246,539.238,0.0
54169.0,STARLINK-5282,PAYLOAD,2023-05-30 11:38:10,15.08836204,6.91e-05,53.2165,236.6116,93.6935,266.4136,-4.8613e-05,-1.061e-05,0.0,0 STARLINK-5282,1 54169U 22141N   23150.48483811 -.00001061  00000-0 -48613-4 0  9999,2 54169  53.2165 236.6116 0000691  93.6935 266.4136 15.08836204 32757,6917.892,95.438,540.235,539.279,0.0
54169.0,STARLINK-5282,PAYLOAD,2023-05-30 14:48:56,15.0883809,7.87e-05,53.2164,236.016,89.4136,270.6946,-2.2599e-05,-6.47e-06,0.0,0 STARLINK-5282,1 54169U 22141N   23150.61731628 -.00000647  00000-0 -22599-4 0  9990,2 54169  53.2164 236.0160 0000787  89.4136 270.6946 15.08838090 32774,6917.886,95.438,540.296,539.207,0.0
54169.0,STARLINK-5282,PAYLOAD,2023-05-31 09:53:33,15.08843274,6.15e-05,53.2154,232.4512,98.3588,261.7474,5.7108e-05,6.21e-06,0.0,0 STARLINK-5282,1 54169U 22141N   23151.41218986  .00000621  00000-0  57108-4 0  9990,2 54169  53.2154 232.4512 0000615  98.3588 261.7474 15.08843274 32894,6917.87,95.437,540.161,539.31,0.0
54169.0,STARLINK-5282,PAYLOAD,2023-05-31 13:04:19,15.08847377,6.34e-05,53.2154,231.8564,96.4811,263.6254,6.9958e-05,8.26e-06,0.0,0 STARLINK-5282,1 54169U 22141N   23151.54466662  .00000826  00000-0  69958-4 0  9993,2 54169  53.2154 231.8564 0000634  96.4811 263.6254 15.08847377 32911,6917.858,95.437,540.161,539.284,0.0
54169.0,STARLINK-5282,PAYLOAD,2023-06-01 09:44:20,15.08833403,7.65e-05,53.2152,227.9898,78.6382,281.4696,5.9183e-05,6.54e-06,0.0,0 STARLINK-5282,1 54169U 22141N   23152.40579648  .00000654  00000-0  59183-4 0  9996,2 54169  53.2152 227.9898 0000765  78.6382 281.4696 15.08833403 33043,6917.901,95.438,540.295,539.236,0.0
54169.0,STARLINK-5282,PAYLOAD,2023-06-02 11:10:30,15.08840487,8.29e-05,53.2158,223.2321,66.3512,293.7567,-3.178e-05,-7.93e-06,0.0,0 STARLINK-5282,1 54169U 22141N   23153.46563629 -.00000793  00000-0 -31780-4 0  9994,2 54169  53.2158 223.2321 0000829  66.3512 293.7567 15.08840487 33200,6917.879,95.438,540.317,539.17,0.0
54169.0,STARLINK-5282,PAYLOAD,2023-06-03 09:25:54,15.08836075,8.27e-05,53.2162,219.0687,66.7073,293.4006,4.0405e-05,3.55e-06,0.0,0 STARLINK-5282,1 54169U 22141N   23154.39299729  .00000355  00000-0  40405-4 0  9990,2 54169  53.2162 219.0687 0000827  66.7073 293.4006 15.08836075 33345,6917.892,95.438,540.329,539.185,0.0
54169.0,STARLINK-5282,PAYLOAD,2023-06-03 23:44:23,15.08836128,7.4e-05,53.216,216.3928,63.9853,296.1216,4.3619e-05,4.07e-06,0.0,0 STARLINK-5282,1 54169U 22141N   23154.98915756  .00000407  00000-0  43619-4 0  9998,2 54169  53.2160 216.3928 0000740  63.9853 296.1216 15.08836128 33432,6917.892,95.438,540.269,539.245,0.0
54169.0,STARLINK-5282,PAYLOAD,2023-06-04 12:27:28,15.08839529,7.07e-05,53.2158,214.0129,78.6838,281.4233,4.3393e-05,4.03e-06,0.0,0 STARLINK-5282,1 54169U 22141N   23155.51907579  .00000403  00000-0  43393-4 0  9997,2 54169  53.2158 214.0129 0000707  78.6838 281.4233 15.08839529 33519,6917.882,95.438,540.236,539.258,0.0
54169.0,STARLINK-5282,PAYLOAD,2023-06-04 20:24:23,15.08837784,7.15e-05,53.2156,212.5257,79.644,280.4632,3.264e-05,2.32e-06,0.0,0 STARLINK-5282,1 54169U 22141N   23155.85027730  .00000232  00000-0  32640-4 0  9999,2 54169  53.2156 212.5257 0000715  79.6440 280.4632 15.08837784 33569,6917.887,95.438,540.247,539.258,0.0
54169.0,STARLINK-5282,PAYLOAD,2023-06-05 02:45:56,15.0883818,6.97e-05,53.2154,211.336,81.8597,278.2475,3.4315e-05,2.59e-06,0.0,0 STARLINK-5282,1 54169U 22141N   23156.11523711  .00000259  00000-0  34315-4 0  9999,2 54169  53.2154 211.3360 0000697  81.8597 278.2475 15.08838180 33602,6917.886,95.438,540.233,539.269,0.0
54169.0,STARLINK-5282,PAYLOAD,2023-06-05 09:07:28,15.08840288,6.48e-05,53.2155,210.1467,86.9416,273.165,4.6666e-05,4.55e-06,0.0,0 STARLINK-5282,1 54169U 22141N   23156.38019527  .00000455  00000-0  46666-4 0  9993,2 54169  53.2155 210.1467 0000648  86.9416 273.1650 15.08840288 33645,6917.88,95.438,540.193,539.296,0.0
54169.0,STARLINK-5282,PAYLOAD,2023-06-05 13:53:38,15.08842099,6.59e-05,53.2154,209.2544,87.7922,272.3145,5.9338e-05,6.57e-06,0.0,0 STARLINK-5282,1 54169U 22141N   23156.57891356  .00000657  00000-0  59338-4 0  9996,2 54169  53.2154 209.2544 0000659  87.7922 272.3145 15.08842099 33677,6917.874,95.437,540.195,539.283,0.0
54169.0,STARLINK-5282,PAYLOAD,2023-06-05 23:25:57,15.08824699,0.0001699,53.214,207.4699,114.8405,245.2764,7.9727e-05,9.81e-06,0.0,0 STARLINK-5282,1 54169U 22141N   23156.97636392  .00000981  00000-0  79727-4 0  9991,2 54169  53.2140 207.4699 0001699 114.8405 245.2764 15.08824699 33735,6917.927,95.439,540.968,538.617,0.0
54169.0,STARLINK-5282,PAYLOAD,2023-06-06 12:09:03,15.08832354,7.83e-05,53.2155,205.091,80.5213,279.5868,-3.4893e-05,-8.43e-06,0.0,0 STARLINK-5282,1 54169U 22141N   23157.50628683 -.00000843  00000-0 -34893-4 0  9999,2 54169  53.2155 205.0910 0000783  80.5213 279.5868 15.08832354 33811,6917.904,95.438,540.31,539.227,0.0
54169.0,STARLINK-5282,PAYLOAD,2023-06-07 02:27:30,15.08838546,6.99e-05,53.2158,202.4162,77.8905,282.2166,3.5825e-05,2.83e-06,0.0,0 STARLINK-5282,1 54169U 22141N   23158.10244194  .00000283  00000-0  35825-4 0  9999,2 54169  53.2158 202.4162 0000699  77.8905 282.2166 15.08838546 33908,6917.885,95.438,540.233,539.266,0.0
54169.0,STARLINK-5282,PAYLOAD,2023-06-07 11:59:49,15.08844624,7.19e-05,53.2157,200.6321,77.0832,283.024,6.7676e-05,7.9e-06,0.0,0 STARLINK-5282,1 54169U 22141N   23158.49987698  .00000790  00000-0  67676-4 0  9996,2 54169  53.2157 200.6321 0000719  77.0832 283.0240 15.08844624 33960,6917.866,95.437,540.229,539.234,0.0
54169.0,STARLINK-5282,PAYLOAD,2023-06-07 19:56:45,15.08823704,8.12e-05,53.2154,199.1455,92.9071,267.2014,0.00022347,3.269e-05,0.0,0 STARLINK-5282,1 54169U 22141N   23158.83108615  .00003269  00000-0  22347-3 0  9997,2 54169  53.2154 199.1455 0000812  92.9071 267.2014 15.08823704 34018,6917.93,95.439,540.357,539.233,0.0
54169.0,STARLINK-5282,PAYLOAD,2023-06-08 02:18:18,15.08834743,8.61e-05,53.2154,197.9559,73.3539,286.7548,8.5028e-05,1.066e-05,0.0,0 STARLINK-5282,1 54169U 22141N   23159.09604338  .00001066  00000-0  85028-4 0  9998,2 54169  53.2154 197.9559 0000861  73.3539 286.7548 15.08834743 34052,6917.896,95.438,540.357,539.166,0.0
54169.0,STARLINK-5282,PAYLOAD,2023-06-08 10:15:13,15.08835857,8.41e-05,53.2152,196.4688,73.1613,286.9471,9.052e-05,1.153e-05,0.0,0 STARLINK-5282,1 54169U 22141N   23159.42724357  .00001153  00000-0  90520-4 0  9999,2 54169  53.2152 196.4688 0000841  73.1613 286.9471 15.08835857 34106,6917.893,95.438,540.34,539.176,0.0
54169.0,STARLINK-5282,PAYLOAD,2023-06-09 08:30:37,15.08843202,8.64e-05,53.2151,192.3053,70.8601,289.2485,2.2655e-05,7.3e-07,0.0,0 STARLINK-5282,1 54169U 22141N   23160.35460062  .00000073  00000-0  22655-4 0  9997,2 54169  53.2151 192.3053 0000864  70.8601 289.2485 15.08843202 34241,6917.871,95.437,540.333,539.138,0.0
54169.0,STARLINK-5282,PAYLOAD,2023-06-09 19:38:19,15.08845878,7.62e-05,53.2149,190.2238,65.8768,294.2304,-3.5661e-05,-8.55e-06,0.0,0 STARLINK-5282,1 54169U 22141N   23160.81827931 -.00000855  00000-0 -35661-4 0  9991,2 54169  53.2149 190.2238 0000762  65.8768 294.2304 15.08845878 34310,6917.862,95.437,540.255,539.2,0.0
54169.0,STARLINK-5282,PAYLOAD,2023-06-10 08:21:24,15.08837861,8.86e-05,53.2149,187.8449,73.938,286.171,1.7815e-05,-4e-08,0.0,0 STARLINK-5282,1 54169U 22141N   23161.34820339 -.00000004  00000-0  17815-4 0  9991,2 54169  53.2149 187.8449 0000886  73.9380 286.1710 15.08837861 34395,6917.887,95.438,540.365,539.139,0.0
